OBJECT_NAME,OBJECT_ID,EPOCH,MEAN_MOTION,ECCENTRICITY,INCLINATION,RA_OF_ASC_NODE,ARG_OF_PERICENTER,MEAN_ANOMALY,EPHEMERIS_TYPE,CLASSIFICATION_TYPE,NORAD_CAT_ID,ELEMENT_SET_NO,REV_AT_EPOCH,BSTAR,MEAN_MOTION_DOT,MEAN_MOTION_DDOT
DMSP 5D-3 F16 (USA 172),2003-048A,2026-07-16T04:05:08.234016,14.14484796,.0008079,98.9897,221.1893,68.7321,11.1083,0,U,28054,999,17358,-.38529E-5,-.53E-6,0
METEOSAT-9 (MSG-2),2005-049B,2026-07-15T17:00:30.811680,1.00272260,.0002207,9.4242,53.8824,356.2900,184.1676,0,U,28912,999,728,0,.11E-5,0
DMSP 5D-3 F17 (USA 191),2006-050A,2026-07-16T03:52:14.952288,14.14996212,.0009667,98.7388,203.1395,340.0349,20.0445,0,U,29522,999,1652,.35004E-5,-.37E-6,0
FENGYUN 3A,2008-026A,2026-07-15T10:51:04.601376,14.19576552,.00096614,98.6886,136.7574,51.1669,309.0369,0,U,32958,999,93941,.3210857E-4,.24E-6,0
EWS-G3 (GOES 14),2009-033A,2026-07-16T01:33:38.763072,1.00097655,.0001935,1.7623,82.6815,40.1052,319.0547,0,U,35491,999,687,0,-.37E-5,0
DMSP 5D-3 F18 (USA 210),2009-057A,2026-07-16T04:55:29.197920,14.14912063,.0011289,98.9057,177.9140,162.6646,197.4915,0,U,35951,999,86369,.11119E-3,.17E-5,0
EWS-G2 (GOES 15),2010-008A,2026-07-16T03:21:26.013024,1.00268468,.0005264,1.3556,82.4456,54.0896,271.0977,0,U,36411,999,5992,0,.11E-6,0
COMS 1,2010-032A,2026-07-16T02:51:28.885248,0.99167726,.001123,4.8776,75.0054,15.0057,205.2047,0,U,36744,999,5137,0,-.252E-5,0
FENGYUN 3B,2010-059A,2026-07-16T05:33:07.159968,14.14846062,.0023189,98.9605,243.3667,103.7056,336.2051,0,U,37214,999,81153,-.11277E-3,-.263E-5,0
SUOMI NPP,2011-061A,2026-07-16T04:03:46.548000,14.19522661,.000079,98.7956,137.8483,208.3291,151.7842,0,U,37849,999,76255,.26568E-4,.12E-6,0
METEOSAT-10 (MSG-3),2012-035B,2026-07-15T21:55:13.346688,1.00271019,.00011815,4.7379,60.8778,16.6551,185.0701,0,U,38552,999,5114,0,-.2E-6,0
METOP-B,2012-049A,2026-07-16T04:34:32.236032,14.21446582,.0001107,98.6489,248.1090,249.7770,110.3288,0,U,38771,999,71738,.41325E-4,.47E-6,0
INSAT-3D,2013-038B,2026-07-16T01:33:38.763072,1.00268123,.0000526,1.9987,82.1743,78.8263,285.7997,0,U,39216,999,4737,0,-.351E-5,0
FENGYUN 3C,2013-052A,2026-07-15T22:46:51.726720,14.15760894,.00136394,98.4999,169.5064,303.6275,56.3598,0,U,39260,999,66263,.34386917E-4,.26E-6,0
METEOR-M 2,2014-037A,2026-07-15T22:26:27.432672,14.21468619,.00051291,98.5126,171.6581,324.5271,35.5565,0,U,40069,999,62340,-.78719937E-4,-.214E-5,0
HIMAWARI-8,2014-060A,2026-07-15T22:35:31.299072,1.00271236,.0001103,0.0175,14.6307,153.4825,245.2159,0,U,40267,999,4304,0,-.286E-5,0
FENGYUN 2G,2014-090A,2026-07-16T01:48:57.257280,1.00280561,.0004256,5.7094,72.4622,172.6495,175.3803,0,U,40367,999,4228,0,-.315E-5,0
METEOSAT-11 (MSG-4),2015-034A,2026-07-16T03:05:57.497280,1.00272152,.000215,3.2712,70.9255,354.5181,284.2621,0,U,40732,999,750,0,.49E-6,0
ELEKTRO-L 2,2015-074A,2026-07-15T23:33:52.284096,1.00272041,.0000985,6.7640,70.1648,213.4147,349.2070,0,U,41105,999,3879,0,-.131E-5,0
SENTINEL-3A,2016-011A,2026-07-16T04:19:28.651008,14.26739925,.0001355,98.6237,264.1454,89.5764,270.5572,0,U,41335,999,54219,.36896E-4,.46E-6,0
INSAT-3DR,2016-054A,2026-07-16T03:24:33.215040,1.00270781,.0010545,0.0723,88.7235,181.2050,149.1809,0,U,41752,999,3610,0,-.87E-6,0
HIMAWARI-9,2016-064A,2026-07-15T22:35:31.299072,1.00271902,.0001915,0.0394,252.9658,278.3797,242.0457,0,U,41836,999,3549,0,-.285E-5,0
GOES 16,2016-071A,2026-07-16T02:33:28.365120,1.00271058,.0000546,0.4063,85.4600,92.1970,49.9576,0,U,41866,999,3539,0,-.102E-5,0
FENGYUN 4A,2016-077A,2026-07-16T05:21:15.313824,1.00267567,.0008496,2.3940,79.9442,159.5733,258.5863,0,U,41882,999,3522,0,-.369E-5,0
CYGFM05,2016-078A,2026-07-16T00:38:33.954432,15.57880539,.0005792,34.9569,69.4362,45.5775,314.5423,0,U,41884,999,53325,.20609E-3,.15884E-3,0
CYGFM04,2016-078B,2026-07-15T23:14:06.451008,15.63112706,.0004131,34.9324,36.0131,93.9356,266.1842,0,U,41885,999,53350,.22598E-3,.2133E-3,0
CYGFM02,2016-078C,2026-07-15T21:51:59.304384,15.66396547,.0004906,34.9406,30.0489,96.3405,263.7881,0,U,41886,999,53367,.23954E-3,.25803E-3,0
CYGFM01,2016-078D,2026-07-16T01:35:51.825984,15.58601671,.0005819,34.9396,69.9893,38.7960,321.3182,0,U,41887,999,53321,.20595E-3,.16315E-3,0
CYGFM08,2016-078E,2026-07-15T23:23:28.939200,15.61486003,.0006084,34.9432,49.3900,77.1426,282.9979,0,U,41888,999,53347,.22374E-3,.19819E-3,0
CYGFM07,2016-078G,2026-07-15T22:21:56.083104,15.61593461,.0004561,34.9448,37.9907,93.8617,266.2631,0,U,41890,999,53349,.22238E-3,.19773E-3,0
CYGFM03,2016-078H,2026-07-15T23:12:31.403232,15.61581462,.0004433,34.9402,39.6858,75.5494,284.5723,0,U,41891,999,53347,.22196E-3,.19725E-3,0
